{
  "type": "FeatureCollection",
  "features": [
    {
      "type": "Feature",
      "properties": {
        "norad_id": 36744,
        "name": "COMS 1",
        "group": "weather",
        "lat": -3.488368357087742,
        "lon": 24.31585303650615,
        "alt_km": 35787.22880640564,
        "timestamp": "2025-12-12T11:38:31.058995+00:00",
        "meta_object_name": "COMS 1",
        "meta_object_id": "2010-032A",
        "meta_epoch": "2025-12-11T15:50:01.719168",
        "meta_mean_motion": 1.00270393,
        "meta_eccentricity": 0.00010766,
        "meta_inclination": 4.3389,
        "meta_ra_of_asc_node": 78.0101,
        "meta_arg_of_pericenter": 214.1904,
        "meta_mean_anomaly": 154.095,
        "meta_ephemeris_type": 0,
        "meta_classification_type": "U",
        "meta_norad_cat_id": 36744,
        "meta_element_set_no": 999,
        "meta_rev_at_epoch": 4921,
        "meta_bstar": 0,
        "meta_mean_motion_dot": -3.37e-06,
        "meta_mean_motion_ddot": 0,
        "tle_line1": "1 36744U 10032A   25345.65974212 -.00000337  00000+0  00000+0 0  9997",
        "tle_line2": "2 36744   4.3389  78.0101 0001076 214.1904 154.0950  1.00270393 49210"
      },
      "geometry": {
        "type": "Point",
        "coordinates": [
          24.31585303650615,
          -3.488368357087742
        ]
      }
    },
    {
      "type": "Feature",
      "properties": {
        "norad_id": 37214,
        "name": "FENGYUN 3B",
        "group": "weather",
        "lat": 1.3998952634885629,
        "lon": -153.31834614220824,
        "alt_km": 861.6800654440822,
        "timestamp": "2025-12-12T11:38:31.059007+00:00",
        "meta_object_name": "FENGYUN 3B",
        "meta_object_id": "2010-059A",
        "meta_epoch": "2025-12-12T06:03:36.082944",
        "meta_mean_motion": 14.14790568,
        "meta_eccentricity": 0.0022073,
        "meta_inclination": 98.9907,
        "meta_ra_of_asc_node": 26.2258,
        "meta_arg_of_pericenter": 359.1021,
        "meta_mean_anomaly": 75.4315,
        "meta_ephemeris_type": 0,
        "meta_classification_type": "U",
        "meta_norad_cat_id": 37214,
        "meta_element_set_no": 999,
        "meta_rev_at_epoch": 78099,
        "meta_bstar": 0.00023097,
        "meta_mean_motion_dot": 4.01e-06,
        "meta_mean_motion_ddot": 0,
        "tle_line1": "1 37214U 10059A   25346.25250096  .00000401  00000+0  23097-3 0  9999",
        "tle_line2": "2 37214  98.9907  26.2258 0022073 359.1021  75.4315 14.14790568780994"
      },
      "geometry": {
        "type": "Point",
        "coordinates": [
          -153.31834614220824,
          1.3998952634885629
        ]
      }
    },
    {
      "type": "Feature",
      "properties": {
        "norad_id": 37849,
        "name": "SUOMI NPP",
        "group": "weather",
        "lat": 14.62344948983534,
        "lon": -78.48144218876267,
        "alt_km": 828.252644879427,
        "timestamp": "2025-12-12T11:38:31.059018+00:00",
        "meta_object_name": "SUOMI NPP",
        "meta_object_id": "2011-061A",
        "meta_epoch": "2025-12-12T03:06:50.679072",
        "meta_mean_motion": 14.19513918,
        "meta_eccentricity": 0.0002226,
        "meta_inclination": 98.7772,
        "meta_ra_of_asc_node": 283.4768,
        "meta_arg_of_pericenter": 121.4018,
        "meta_mean_anomaly": 238.7376,
        "meta_ephemeris_type": 0,
        "meta_classification_type": "U",
        "meta_norad_cat_id": 37849,
        "meta_element_set_no": 999,
        "meta_rev_at_epoch": 73190,
        "meta_bstar": 0.0001033,
        "meta_mean_motion_dot": 1.74e-06,
        "meta_mean_motion_ddot": 0,
        "tle_line1": "1 37849U 11061A   25346.12975323  .00000174  00000+0  10330-3 0  9993",
        "tle_line2": "2 37849  98.7772 283.4768 0002226 121.4018 238.7376 14.19513918731908"
      },
      "geometry": {
        "type": "Point",
        "coordinates": [
          -78.48144218876267,
          14.62344948983534
        ]
      }
    },
    {
      "type": "Feature",
      "properties": {
        "norad_id": 38552,
        "name": "METEOSAT-10 (MSG-3)",
        "group": "weather",
        "lat": -1.0756202838665414,
        "lon": -103.81108256487764,
        "alt_km": 35783.49716499575,
        "timestamp": "2025-12-12T11:38:31.059030+00:00",
        "meta_object_name": "METEOSAT-10 (MSG-3)",
        "meta_object_id": "2012-035B",
        "meta_epoch": "2025-12-12T01:29:48.412896",
        "meta_mean_motion": 1.00274807,
        "meta_eccentricity": 8.06e-05,
        "meta_inclination": 4.2276,
        "meta_ra_of_asc_node": 61.7269,
        "meta_arg_of_pericenter": 251.351,
        "meta_mean_anomaly": 150.5582,
        "meta_ephemeris_type": 0,
        "meta_classification_type": "U",
        "meta_norad_cat_id": 38552,
        "meta_element_set_no": 999,
        "meta_rev_at_epoch": 4898,
        "meta_bstar": 0,
        "meta_mean_motion_dot": 3e-08,
        "meta_mean_motion_ddot": 0,
        "tle_line1": "1 38552U 12035B   25346.06236589  .00000003  00000+0  00000+0 0  9994",
        "tle_line2": "2 38552   4.2276  61.7269 0000806 251.3510 150.5582  1.00274807 48982"
      },
      "geometry": {
        "type": "Point",
        "coordinates": [
          -103.81108256487764,
          -1.0756202838665414
        ]
      }
    },
    {
      "type": "Feature",
      "properties": {
        "norad_id": 38771,
        "name": "METOP-B",
        "group": "weather",
        "lat": -44.89145693609583,
        "lon": -152.30533187696227,
        "alt_km": 826.9459139334131,
        "timestamp": "2025-12-12T11:38:31.059041+00:00",
        "meta_object_name": "METOP-B",
        "meta_object_id": "2012-049A",
        "meta_epoch": "2025-12-12T03:49:37.140096",
        "meta_mean_motion": 14.21408023,
        "meta_eccentricity": 0.0002883,
        "meta_inclination": 98.68,
        "meta_ra_of_asc_node": 36.1281,
        "meta_arg_of_pericenter": 145.439,
        "meta_mean_anomaly": 214.6975,
        "meta_ephemeris_type": 0,
        "meta_classification_type": "U",
        "meta_norad_cat_id": 38771,
        "meta_element_set_no": 999,
        "meta_rev_at_epoch": 68669,
        "meta_bstar": 0.00011934,
        "meta_mean_motion_dot": 2.17e-06,
        "meta_mean_motion_ddot": 0,
        "tle_line1": "1 38771U 12049A   25346.15945764  .00000217  00000+0  11934-3 0  9993",
        "tle_line2": "2 38771  98.6800  36.1281 0002883 145.4390 214.6975 14.21408023686691"
      },
      "geometry": {
        "type": "Point",
        "coordinates": [
          -152.30533187696227,
          -44.89145693609583
        ]
      }
    },
    {
      "type": "Feature",
      "properties": {
        "norad_id": 39216,
        "name": "INSAT-3D",
        "group": "weather",
        "lat": -1.2291344865376743,
        "lon": 25.611231960276044,
        "alt_km": 35791.36018705341,
        "timestamp": "2025-12-12T11:38:31.059053+00:00",
        "meta_object_name": "INSAT-3D",
        "meta_object_id": "2013-038B",
        "meta_epoch": "2025-12-11T19:15:49.511232",
        "meta_mean_motion": 1.00270347,
        "meta_eccentricity": 0.0001504,
        "meta_inclination": 1.4427,
        "meta_ra_of_asc_node": 85.0027,
        "meta_arg_of_pericenter": 164.0419,
        "meta_mean_anomaly": 250.209,
        "meta_ephemeris_type": 0,
        "meta_classification_type": "U",
        "meta_norad_cat_id": 39216,
        "meta_element_set_no": 999,
        "meta_rev_at_epoch": 4520,
        "meta_bstar": 0,
        "meta_mean_motion_dot": -3.31e-06,
        "meta_mean_motion_ddot": 0,
        "tle_line1": "1 39216U 13038B   25345.80265638 -.00000331  00000+0  00000+0 0  9999",
        "tle_line2": "2 39216   1.4427  85.0027 0001504 164.0419 250.2090  1.00270347 45201"
      },
      "geometry": {
        "type": "Point",
        "coordinates": [
          25.611231960276044,
          -1.2291344865376743
        ]
      }
    },
    {
      "type": "Feature",
      "properties": {
        "norad_id": 39260,
        "name": "FENGYUN 3C",
        "group": "weather",
        "lat": 61.25710142295507,
        "lon": 159.95378870780405,
        "alt_km": 832.0288110329611,
        "timestamp": "2025-12-12T11:38:31.059064+00:00",
        "meta_object_name": "FENGYUN 3C",
        "meta_object_id": "2013-052A",
        "meta_epoch": "2025-12-12T04:18:10.319040",
        "meta_mean_motion": 14.15696012,
        "meta_eccentricity": 0.0014259,
        "meta_inclination": 98.4762,
        "meta_ra_of_asc_node": 323.8861,
        "meta_arg_of_pericenter": 197.6642,
        "meta_mean_anomaly": 162.4039,
        "meta_ephemeris_type": 0,
        "meta_classification_type": "U",
        "meta_norad_cat_id": 39260,
        "meta_element_set_no": 999,
        "meta_rev_at_epoch": 63210,
        "meta_bstar": 0.00011545,
        "meta_mean_motion_dot": 1.85e-06,
        "meta_mean_motion_ddot": 0,
        "tle_line1": "1 39260U 13052A   25346.17928610  .00000185  00000+0  11545-3 0  9997",
        "tle_line2": "2 39260  98.4762 323.8861 0014259 197.6642 162.4039 14.15696012632107"
      },
      "geometry": {
        "type": "Point",
        "coordinates": [
          159.95378870780405,
          61.25710142295507
        ]
      }
    }
  ]
}